GLOBALSTAR M019         
1 25677U 99019B   25032.49281543  .00000060  00000+0  15658-2 0  9995
2 25677  51.9876  92.8428 0001233  77.4702  28.3712 12.13870323168664
GLOBALSTAR M044         
1 25678U 99019C   25032.31428964 -.00000117  00000+0 -46078-3 0  9993
2 25678  51.9989  27.7008 0006578 138.4735 327.1281 11.90248005155142
GLOBALSTAR M042         
1 25679U 99019D   25032.29687795 -.00000081  00000+0  10335-3 0  9996
2 25679  52.0019  74.5746 0002635  28.3946  51.8855 12.22077528168642
GLOBALSTAR M025         
1 25770U 99031A   25032.62996459 -.00000070  00000+0 -92471-4 0  9990
2 25770  51.9814 113.2994 0000948 246.3402 293.2092 11.22558664466487
GLOBALSTAR M049         
1 25771U 99031B   25032.53749114  .00000015  00000+0  27676-2 0  9995
2 25771  51.9865 141.4593 0004306 139.2379 220.8740 11.12113680102338
GLOBALSTAR M052         
1 25773U 99031D   25032.59170340 -.00000009  00000+0  18999-2 0  9994
2 25773  51.9837 251.9231 0001917 334.9621  69.4059 11.15057718463381
